NORAD_CAT_ID,OBJECT_NAME,OBJECT_TYPE,EPOCH,MEAN_MOTION,ECCENTRICITY,INCLINATION,RA_OF_ASC_NODE,ARG_OF_PERICENTER,MEAN_ANOMALY,BSTAR,MEAN_MOTION_DOT,MEAN_MOTION_DDOT,TLE_LINE0,TLE_LINE1,TLE_LINE2,SEMIMAJOR_AXIS,PERIOD,APOGEE,PERIGEE,DECAYED
53132.0,STARLINK-4063,PAYLOAD,2023-06-04 21:32:02,15.08842731,0.0001118,53.219,22.7609,98.786,261.3259,5.2009e-05,5.4e-06,0.0,0 STARLINK-4063,1 53132U 22083A   23155.89725563  .00000540  00000-0  52009-4 0  9999,2 53132  53.2190  22.7609 0001118  98.7860 261.3259 15.08842731 48921,6917.872,95.437,540.51,538.964,0.0
53132.0,STARLINK-4063,PAYLOAD,2023-06-05 00:42:48,15.08845216,0.000112,53.2192,22.165,96.8085,263.3035,7.0652e-05,8.37e-06,0.0,0 STARLINK-4063,1 53132U 22083A   23156.02973306  .00000837  00000-0  70652-4 0  9998,2 53132  53.2192  22.1650 0001120  96.8085 263.3035 15.08845216 49571,6917.864,95.437,540.504,538.955,0.0
53132.0,STARLINK-4063,PAYLOAD,2023-06-05 21:22:49,15.08845113,0.0001135,53.2187,18.3008,95.4973,264.6149,3.2413e-05,2.28e-06,0.0,0 STARLINK-4063,1 53132U 22083A   23156.89085390  .00000228  00000-0  32413-4 0  9997,2 53132  53.2187  18.3008 0001135  95.4973 264.6149 15.08845113 49077,6917.865,95.437,540.515,538.945,0.0
53132.0,STARLINK-4063,PAYLOAD,2023-06-06 00:33:35,15.0884907,0.0001114,53.2189,17.7069,94.3797,265.7322,6.3492e-05,7.23e-06,0.0,0 STARLINK-4063,1 53132U 22083A   23157.02333004  .00000723  00000-0  63492-4 0  9992,2 53132  53.2189  17.7069 0001114  94.3797 265.7322 15.08849070 49721,6917.853,95.437,540.488,538.947,0.0
53132.0,STARLINK-4063,PAYLOAD,2023-06-06 16:27:27,15.08838673,0.0001173,53.2187,14.7328,100.633,259.4794,-2.3182e-05,-6.57e-06,0.0,0 STARLINK-4063,1 53132U 22083A   23157.68573911 -.00000657  00000-0 -23182-4 0  9997,2 53132  53.2187  14.7328 0001173 100.6330 259.4794 15.08838673 49824,6917.884,95.438,540.561,538.938,0.0
53132.0,STARLINK-4063,PAYLOAD,2023-06-07 00:24:23,15.08845196,0.0001094,53.2186,13.2468,87.6222,272.4895,3.5027e-05,2.7e-06,0.0,0 STARLINK-4063,1 53132U 22083A   23158.01693312  .00000270  00000-0  35027-4 0  9993,2 53132  53.2186  13.2468 0001094  87.6222 272.4895 15.08845196 49878,6917.865,95.437,540.486,538.973,0.0
53132.0,STARLINK-4063,PAYLOAD,2023-06-07 17:53:38,15.08833381,0.0001224,53.2184,9.9736,109.2573,250.8552,-5.5878e-05,-1.177e-05,0.0,0 STARLINK-4063,1 53132U 22083A   23158.74558341 -.00001177  00000-0 -55878-4 0  9990,2 53132  53.2184   9.9736 0001224 109.2573 250.8552 15.08833381 49986,6917.901,95.438,540.612,538.919,0.0
53132.0,STARLINK-4063,PAYLOAD,2023-06-07 21:04:24,15.08837286,0.0001116,53.2187,9.3831,86.934,273.178,-4.0114e-06,-3.52e-06,0.0,0 STARLINK-4063,1 53132U 22083A   23158.87806279 -.00000352  00000-0 -40114-5 0  9992,2 53132  53.2187   9.3831 0001116  86.9340 273.1780 15.08837286 49374,6917.889,95.438,540.526,538.982,0.0
53132.0,STARLINK-4063,PAYLOAD,2023-06-07 22:39:47,15.08838317,0.0001173,53.2186,9.0836,90.3091,269.8036,3.7081e-06,-2.29e-06,0.0,0 STARLINK-4063,1 53132U 22083A   23158.94430101 -.00000229  00000-0  37081-5 0  9998,2 53132  53.2186   9.0836 0001173  90.3091 269.8036 15.08838317 49383,6917.886,95.438,540.562,538.939,0.0
53132.0,STARLINK-4063,PAYLOAD,2023-06-08 22:30:34,15.08846647,0.0001066,53.2182,4.6247,87.1643,272.9471,9.265e-05,1.187e-05,0.0,0 STARLINK-4063,1 53132U 22083A   23159.93789530  .00001187  00000-0  92650-4 0  9996,2 53132  53.2182   4.6247 0001066  87.1643 272.9471 15.08846647 50165,6917.86,95.437,540.463,538.988,0.0
53132.0,STARLINK-4063,PAYLOAD,2023-06-09 06:27:30,15.08836236,9.93e-05,53.2177,3.1389,90.6831,269.4275,8.793e-05,1.112e-05,0.0,0 STARLINK-4063,1 53132U 22083A   23160.26910211  .00001112  00000-0  87930-4 0  9999,2 53132  53.2177   3.1389 0000993  90.6831 269.4275 15.08836236 50218,6917.892,95.438,540.444,539.07,0.0
53132.0,STARLINK-4063,PAYLOAD,2023-06-09 15:59:49,15.08833221,0.0001065,53.2178,1.3545,92.0062,268.1052,2.5061e-05,1.11e-06,0.0,0 STARLINK-4063,1 53132U 22083A   23160.66654792  .00000111  00000-0  25061-4 0  9997,2 53132  53.2178   1.3545 0001065  92.0062 268.1052 15.08833221 49641,6917.901,95.438,540.503,539.029,0.0
53132.0,STARLINK-4063,PAYLOAD,2023-06-10 06:18:17,15.08839514,0.0001147,53.2178,358.6781,89.6229,270.4895,6.5068e-05,7.48e-06,0.0,0 STARLINK-4063,1 53132U 22083A   23161.26270440  .00000748  00000-0  65068-4 0  9995,2 53132  53.2178 358.6781 0001147  89.6229 270.4895 15.08839514 49731,6917.882,95.438,540.54,538.953,0.0
53132.0,STARLINK-4063,PAYLOAD,2023-06-10 22:12:08,15.08846491,0.0001132,53.2176,355.7044,90.7502,269.362,4.8969e-05,4.92e-06,0.0,0 STARLINK-4063,1 53132U 22083A   23161.92510004  .00000492  00000-0  48969-4 0  9998,2 53132  53.2176 355.7044 0001132  90.7502 269.3620 15.08846491 50467,6917.861,95.437,540.509,538.942,0.0
53132.0,STARLINK-4063,PAYLOAD,2023-06-11 12:30:37,15.08834401,0.0001365,53.2184,353.0254,81.9813,278.1334,6.0451e-05,6.74e-06,0.0,0 STARLINK-4063,1 53132U 22083A   23162.52126842  .00000674  00000-0  60451-4 0  9990,2 53132  53.2184 353.0254 0001365  81.9813 278.1334 15.08834401 49922,6917.898,95.438,540.707,538.818,0.0
53132.0,STARLINK-4063,PAYLOAD,2023-06-11 22:02:56,15.0884168,0.0001284,53.2179,351.2423,83.9807,276.1332,3.8249e-05,3.21e-06,0.0,0 STARLINK-4063,1 53132U 22083A   23162.91870487  .00000321  00000-0  38249-4 0  9993,2 53132  53.2179 351.2423 0001284  83.9807 276.1332 15.08841680 49988,6917.875,95.437,540.629,538.852,0.0
53132.0,STARLINK-4063,PAYLOAD,2023-06-12 05:59:51,15.08840822,0.0001213,53.2181,349.7544,87.7478,272.3653,4.6333e-05,4.5e-06,0.0,0 STARLINK-4063,1 53132U 22083A   23163.24990477  .00000450  00000-0  46333-4 0  9998,2 53132  53.2181 349.7544 0001213  87.7478 272.3653 15.08840822 50034,6917.878,95.438,540.582,538.904,0.0
53132.0,STARLINK-4063,PAYLOAD,2023-06-12 18:42:56,15.0884249,0.0001255,53.2182,347.3762,85.5168,274.5968,5.2428e-05,5.47e-06,0.0,0 STARLINK-4063,1 53132U 22083A   23163.77982354  .00000547  00000-0  52428-4 0  9990,2 53132  53.2182 347.3762 0001255  85.5168 274.5968 15.08842490 50743,6917.873,95.437,540.606,538.87,0.0
53132.0,STARLINK-4063,PAYLOAD,2023-06-12 21:53:42,15.08846205,0.0001199,53.2181,346.7813,84.122,275.9909,2.1916e-05,6.1e-07,0.0,0 STARLINK-4063,1 53132U 22083A   23163.91230207  .00000061  00000-0  21916-4 0  9998,2 53132  53.2181 346.7813 0001199  84.1220 275.9909 15.08846205 50134,6917.861,95.437,540.556,538.897,0.0
53132.0,STARLINK-4063,PAYLOAD,2023-06-13 12:12:11,15.08828434,0.0001264,53.2183,344.1037,92.8582,267.2555,0.00017694,2.528e-05,0.0,0 STARLINK-4063,1 53132U 22083A   23164.50846858  .00002528  00000-0  17694-3 0  9996,2 53132  53.2183 344.1037 0001264  92.8582 267.2555 15.08828434 50850,6917.916,95.438,540.655,538.906,0.0
53132.0,STARLINK-4063,PAYLOAD,2023-06-13 18:33:43,15.08839815,9.77e-05,53.2184,342.9138,96.2456,263.8647,0.00015801,2.228e-05,0.0,0 STARLINK-4063,1 53132U 22083A   23164.77342139  .00002228  00000-0  15801-3 0  9993,2 53132  53.2184 342.9138 0000977  96.2456 263.8647 15.08839815 50890,6917.881,95.438,540.422,539.07,0.0
53132.0,STARLINK-4063,PAYLOAD,2023-06-14 12:02:58,15.08834532,0.0001124,53.2184,339.644,95.0974,265.0147,-1.3112e-06,-3.09e-06,0.0,0 STARLINK-4063,1 53132U 22083A   23165.50206989 -.00000309  00000-0 -13112-5 0  9992,2 53132  53.2184 339.6440 0001124  95.0974 265.0147 15.08834532 50379,6917.897,95.438,540.54,538.985,0.0
53132.0,STARLINK-4063,PAYLOAD,2023-06-14 19:59:54,15.08839829,0.0001145,53.219,338.1565,84.0142,276.0981,2.7425e-05,1.49e-06,0.0,0 STARLINK-4063,1 53132U 22083A   23165.83326648  .00000149  00000-0  27425-4 0  9994,2 53132  53.2190 338.1565 0001145  84.0142 276.0981 15.08839829 50424,6917.881,95.438,540.538,538.954,0.0
53132.0,STARLINK-4063,PAYLOAD,2023-06-14 21:35:17,15.08838309,0.0001121,53.2178,337.8621,82.9393,277.1726,2.5435e-05,1.17e-06,0.0,0 STARLINK-4063,1 53132U 22083A   23165.89950773  .00000117  00000-0  25435-4 0  9996,2 53132  53.2178 337.8621 0001121  82.9393 277.1726 15.08838309 51060,6917.886,95.438,540.526,538.975,0.0
53132.0,STARLINK-4063,PAYLOAD,2023-06-15 11:53:46,15.08834156,0.000107,53.218,335.1854,85.3485,274.7629,-8.9028e-06,-4.29e-06,0.0,0 STARLINK-4063,1 53132U 22083A   23166.49567320 -.00000429  00000-0 -89028-5 0  9992,2 53132  53.2180 335.1854 0001070  85.3485 274.7629 15.08834156 50525,6917.898,95.438,540.503,539.023,0.0
53132.0,STARLINK-4063,PAYLOAD,2023-06-15 18:15:18,15.0884014,0.0001087,53.2182,333.9963,81.2375,278.874,4.2715e-05,3.92e-06,0.0,0 STARLINK-4063,1 53132U 22083A   23166.76062856  .00000392  00000-0  42715-4 0  9994,2 53132  53.2182 333.9963 0001087  81.2375 278.8740 15.08840140 50568,6917.88,95.438,540.497,538.993,0.0
53132.0,STARLINK-4063,PAYLOAD,2023-06-16 03:47:37,15.08833023,0.0001079,53.2182,332.2119,84.6219,275.4896,0.00017737,2.536e-05,0.0,0 STARLINK-4063,1 53132U 22083A   23167.15807058  .00002536  00000-0  17737-3 0  9996,2 53132  53.2182 332.2119 0001079  84.6219 275.4896 15.08833023 51252,6917.902,95.438,540.513,539.02,0.0
53132.0,STARLINK-4063,PAYLOAD,2023-06-16 11:44:32,15.08842689,0.0001006,53.2184,330.7245,82.5931,277.5175,0.00011781,1.588e-05,0.0,0 STARLINK-4063,1 53132U 22083A   23167.48926527  .00001588  00000-0  11781-3 0  9994,2 53132  53.2184 330.7245 0001006  82.5931 277.5175 15.08842689 50671,6917.872,95.437,540.433,539.041,0.0
53132.0,STARLINK-4063,PAYLOAD,2023-06-16 14:55:18,15.088471,0.0001002,53.2175,330.1302,82.5295,277.5811,0.00013738,1.9e-05,0.0,0 STARLINK-4063,1 53132U 22083A   23167.62174152  .00001900  00000-0  13738-3 0  9991,2 53132  53.2175 330.1302 0001002  82.5295 277.5811 15.08847100 51321,6917.859,95.437,540.417,539.031,0.0
53132.0,STARLINK-4063,PAYLOAD,2023-06-16 19:41:27,15.08855229,0.0001012,53.2179,329.2385,81.5138,278.5969,0.000204,2.962e-05,0.0,0 STARLINK-4063,1 53132U 22083A   23167.82045353  .00002962  00000-0  20400-3 0  9996,2 53132  53.2179 329.2385 0001012  81.5138 278.5969 15.08855229 50720,6917.834,95.437,540.399,538.999,0.0
